start=new Date('2023-04-14T00:00:00.000Z').valueOf();
sats=[{"ECCENTRICITY":"0.00012440","REF_FRAME":"TEME","APOAPSIS":"548.124","GP_ID":"230010914","REV_AT_EPOCH":"18014","SEMIMAJOR_AXIS":"6925.398","MEAN_ANOMALY":"252.0647","TIME_SYSTEM":"UTC","OBJECT_ID":"2020-001Z","TLE_LINE2":"2 44937  53.0540  51.6276 0001244 108.0478 252.0647 15.06383902180149","DECAY_DATE":null,"OBJECT_NAME":"STARLINK-1079","CLASSIFICATION_TYPE":"U","SITE":"AFETR","LAUNCH_DATE":"2020-01-07","NORAD_CAT_ID":"44937","EPOCH":"2023-04-13T05:52:26.751648","CENTER_NAME":"EARTH","COUNTRY_CODE":"US","ELEMENT_SET_NO":"999","RA_OF_ASC_NODE":"51.6276","BSTAR":"0.00159910000000","MEAN_ELEMENT_THEORY":"SGP4","PERIOD":"95.593","MEAN_MOTION_DOT":"0.00023607","INCLINATION":"53.0540","OBJECT_TYPE":"PAYLOAD","FILE":"3886564","EPHEMERIS_TYPE":"0","ARG_OF_PERICENTER":"108.0478","MEAN_MOTION_DDOT":"0.0000000000000","TLE_LINE1":"1 44937U 20001Z   23103.24475407  .00023607  00000-0  15991-2 0  9997","MEAN_MOTION":"15.06383902","RCS_SIZE":"LARGE","PERIAPSIS":"546.401"},{"OBJECT_TYPE":"PAYLOAD","FILE":"3886857","PERIOD":"95.592","MEAN_MOTION_DOT":"0.00019215","INCLINATION":"53.0553","BSTAR":"0.00130550000000","MEAN_ELEMENT_THEORY":"SGP4","CENTER_NAME":"EARTH","COUNTRY_CODE":"US","ELEMENT_SET_NO":"999","RA_OF_ASC_NODE":"50.2893","TLE_LINE1":"1 44938U 20001AA  23103.54331494  .00019215  00000-0  13055-2 0  9997","RCS_SIZE":"LARGE","MEAN_MOTION":"15.06395026","PERIAPSIS":"546.435","EPHEMERIS_TYPE":"0","ARG_OF_PERICENTER":"109.2127","MEAN_MOTION_DDOT":"0.0000000000000","TLE_LINE2":"2 44938  53.0553  50.2893 0001146 109.2127 250.8986 15.06395026180185","OBJECT_ID":"2020-001AA","DECAY_DATE":null,"REV_AT_EPOCH":"18018","GP_ID":"230024266","SEMIMAJOR_AXIS":"6925.364","MEAN_ANOMALY":"250.8986","TIME_SYSTEM":"UTC","APOAPSIS":"548.022","ECCENTRICITY":"0.00011460","REF_FRAME":"TEME","NORAD_CAT_ID":"44938","EPOCH":"2023-04-13T13:02:22.410816","CLASSIFICATION_TYPE":"U","SITE":"AFETR","LAUNCH_DATE":"2020-01-07","OBJECT_NAME":"STARLINK-1082"},{"OBJECT_NAME":"STARLINK-1083","CLASSIFICATION_TYPE":"U","SITE":"AFETR","LAUNCH_DATE":"2020-01-07","NORAD_CAT_ID":"44939","EPOCH":"2023-04-13T13:12:59.250528","ECCENTRICITY":"0.00011020","REF_FRAME":"TEME","APOAPSIS":"547.991","SEMIMAJOR_AXIS":"6925.362","GP_ID":"230024257","REV_AT_EPOCH":"18018","TIME_SYSTEM":"UTC","MEAN_ANOMALY":"236.2531","OBJECT_ID":"2020-001AB","TLE_LINE2":"2 44939  53.0542  50.2534 0001102 123.8563 236.2531 15.06395501180186","DECAY_DATE":null,"EPHEMERIS_TYPE":"0","ARG_OF_PERICENTER":"123.8563","MEAN_MOTION_DDOT":"0.0000000000000","PERIAPSIS":"546.464","TLE_LINE1":"1 44939U 20001AB  23103.55068577  .00024727  00000-0  16733-2 0  9998","MEAN_MOTION":"15.06395501","RCS_SIZE":"LARGE","COUNTRY_CODE":"US","CENTER_NAME":"EARTH","RA_OF_ASC_NODE":"50.2534","ELEMENT_SET_NO":"999","MEAN_ELEMENT_THEORY":"SGP4","BSTAR":"0.00167330000000","PERIOD":"95.592","INCLINATION":"53.0542","MEAN_MOTION_DOT":"0.00024727","FILE":"3886857","OBJECT_TYPE":"PAYLOAD"},{"EPHEMERIS_TYPE":"0","ARG_OF_PERICENTER":"91.8291","MEAN_MOTION_DDOT":"0.0000000000000","PERIAPSIS":"546.498","MEAN_MOTION":"15.06371396","TLE_LINE1":"1 44940U 20001AC  23103.23000660  .00021964  00000-0  14900-2 0  9998","RCS_SIZE":"LARGE","MEAN_ELEMENT_THEORY":"SGP4","BSTAR":"0.00149000000000","COUNTRY_CODE":"US","CENTER_NAME":"EARTH","RA_OF_ASC_NODE":"51.6932","ELEMENT_SET_NO":"999","FILE":"3886564","OBJECT_TYPE":"PAYLOAD","PERIOD":"95.594","INCLINATION":"53.0542","MEAN_MOTION_DOT":"0.00021964","OBJECT_NAME":"STARLINK-1091","NORAD_CAT_ID":"44940","EPOCH":"2023-04-13T05:31:12.570240","CLASSIFICATION_TYPE":"U","SITE":"AFETR","LAUNCH_DATE":"2020-01-07","APOAPSIS":"548.105","ECCENTRICITY":"0.00011600","REF_FRAME":"TEME","OBJECT_ID":"2020-001AC","TLE_LINE2":"2 44940  53.0542  51.6932 0001160  91.8291 268.2830 15.06371396180139","DECAY_DATE":null,"SEMIMAJOR_AXIS":"6925.436","GP_ID":"230010164","REV_AT_EPOCH":"18013","TIME_SYSTEM":"UTC","MEAN_ANOMALY":"268.2830"},{"PERIOD":"95.592","MEAN_MOTION_DOT":"0.00024435","INCLINATION":"53.0537","OBJECT_TYPE":"PAYLOAD","FILE":"3886564","CENTER_NAME":"EARTH","COUNTRY_CODE":"US","ELEMENT_SET_NO":"999","RA_OF_ASC_NODE":"52.1890","BSTAR":"0.00165350000000","MEAN_ELEMENT_THEORY":"SGP4","MEAN_MOTION":"15.06403182","TLE_LINE1":"1 44941U 20001AD  23103.11944036  .00024435  00000-0  16535-2 0  9992","RCS_SIZE":"LARGE","PERIAPSIS":"546.225","ARG_OF_PERICENTER":"100.0028","EPHEMERIS_TYPE":"0","MEAN_MOTION_DDOT":"0.0000000000000","GP_ID":"230010415","REV_AT_EPOCH":"18012","SEMIMAJOR_AXIS":"6925.339","MEAN_ANOMALY":"260.1121","TIME_SYSTEM":"UTC","TLE_LINE2":"2 44941  53.0537  52.1890 0001413 100.0028 260.1121 15.06403182180127","OBJECT_ID":"2020-001AD","DECAY_DATE":null,"ECCENTRICITY":"0.00014130","REF_FRAME":"TEME","APOAPSIS":"548.182","CLASSIFICATION_TYPE":"U","LAUNCH_DATE":"2020-01-07","SITE":"AFETR","NORAD_CAT_ID":"44941","EPOCH":"2023-04-13T02:51:59.647104","OBJECT_NAME":"STARLINK-1094"},{"APOAPSIS":"509.786","ECCENTRICITY":"0.00057950","REF_FRAME":"TEME","OBJECT_ID":"2020-001AE","TLE_LINE2":"2 44942  53.0557  39.6826 0005795  65.9232 294.2368 15.20015298180306","DECAY_DATE":null,"SEMIMAJOR_AXIS":"6883.931","GP_ID":"230011163","REV_AT_EPOCH":"18030","TIME_SYSTEM":"UTC","MEAN_ANOMALY":"294.2368","OBJECT_NAME":"STARLINK-1096","NORAD_CAT_ID":"44942","EPOCH":"2023-04-13T02:17:46.213728","CLASSIFICATION_TYPE":"U","SITE":"AFETR","LAUNCH_DATE":"2020-01-07","MEAN_ELEMENT_THEORY":"SGP4","BSTAR":"0.00054808000000","COUNTRY_CODE":"US","CENTER_NAME":"EARTH","RA_OF_ASC_NODE":"39.6826","ELEMENT_SET_NO":"999","FILE":"3886564","OBJECT_TYPE":"PAYLOAD","PERIOD":"94.736","INCLINATION":"53.0557","MEAN_MOTION_DOT":"0.00011658","EPHEMERIS_TYPE":"0","ARG_OF_PERICENTER":"65.9232","MEAN_MOTION_DDOT":"0.0000000000000","PERIAPSIS":"501.807","RCS_SIZE":"LARGE","TLE_LINE1":"1 44942U 20001AE  23103.09567377  .00011658  00000-0  54808-3 0  9998","MEAN_MOTION":"15.20015298"},{"TIME_SYSTEM":"UTC","MEAN_ANOMALY":"257.4885","SEMIMAJOR_AXIS":"6925.362","REV_AT_EPOCH":"18014","GP_ID":"230009914","DECAY_DATE":null,"OBJECT_ID":"2020-001AF","TLE_LINE2":"2 44943  53.0544  51.4613 0001125 102.6230 257.4885 15.06395479180142","REF_FRAME":"TEME","ECCENTRICITY":"0.00011250","APOAPSIS":"548.007","SITE":"AFETR","LAUNCH_DATE":"2020-01-07","CLASSIFICATION_TYPE":"U","EPOCH":"2023-04-13T06:45:31.226688","NORAD_CAT_ID":"44943","OBJECT_NAME":"STARLINK-1100","INCLINATION":"53.0544","MEAN_MOTION_DOT":"0.00018538","PERIOD":"95.592","FILE":"3886564","OBJECT_TYPE":"PAYLOAD","RA_OF_ASC_NODE":"51.4613","ELEMENT_SET_NO":"999","COUNTRY_CODE":"US","CENTER_NAME":"EARTH","MEAN_ELEMENT_THEORY":"SGP4","BSTAR":"0.00126030000000","PERIAPSIS":"546.448","RCS_SIZE":"LARGE","TLE_LINE1":"1 44943U 20001AF  23103.28161142  .00018538  00000-0  12603-2 0  9990","MEAN_MOTION":"15.06395479","MEAN_MOTION_DDOT":"0.0000000000000","ARG_OF_PERICENTER":"102.6230","EPHEMERIS_TYPE":"0"},{"PERIAPSIS":"546.657","MEAN_MOTION":"15.06387971","TLE_LINE1":"1 44944U 20001AG  23103.13048159  .00000785  00000-0  71590-4 0  9994","RCS_SIZE":"LARGE","MEAN_MOTION_DDOT":"0.0000000000000","EPHEMERIS_TYPE":"0","ARG_OF_PERICENTER":"109.7354","INCLINATION":"53.0542","MEAN_MOTION_DOT":"0.00000785","PERIOD":"95.593","FILE":"3886860","OBJECT_TYPE":"PAYLOAD","RA_OF_ASC_NODE":"52.1390","ELEMENT_SET_NO":"999","COUNTRY_CODE":"US","CENTER_NAME":"EARTH","MEAN_ELEMENT_THEORY":"SGP4","BSTAR":"0.00007159000000","SITE":"AFETR","LAUNCH_DATE":"2020-01-07","CLASSIFICATION_TYPE":"U","EPOCH":"2023-04-13T03:07:53.609376","NORAD_CAT_ID":"44944","OBJECT_NAME":"STARLINK-1108","TIME_SYSTEM":"UTC","MEAN_ANOMALY":"250.3728","SEMIMAJOR_AXIS":"6925.385","REV_AT_EPOCH":"18012","GP_ID":"230024811","DECAY_DATE":null,"OBJECT_ID":"2020-001AG","TLE_LINE2":"2 44944  53.0542  52.1390 0000857 109.7354 250.3728 15.06387971180121","REF_FRAME":"TEME","ECCENTRICITY":"0.00008570","APOAPSIS":"547.844"},{"EPOCH":"2023-04-13T13:23:35.616768","NORAD_CAT_ID":"44945","SITE":"AFETR","LAUNCH_DATE":"2020-01-07","CLASSIFICATION_TYPE":"U","OBJECT_NAME":"STARLINK-1109","DECAY_DATE":null,"OBJECT_ID":"2020-001AH","TLE_LINE2":"2 44945  53.0543  50.2201 0001496 116.5130 243.6013 15.06404616180185","MEAN_ANOMALY":"243.6013","TIME_SYSTEM":"UTC","REV_AT_EPOCH":"18018","GP_ID":"230024809","SEMIMAJOR_AXIS":"6925.334","APOAPSIS":"548.235","REF_FRAME":"TEME","ECCENTRICITY":"0.00014960","RCS_SIZE":"LARGE","TLE_LINE1":"1 44945U 20001AH  23103.55805112  .00016804  00000-0  11442-2 0  9998","MEAN_MOTION":"15.06404616","PERIAPSIS":"546.163","MEAN_MOTION_DDOT":"0.0000000000000","EPHEMERIS_TYPE":"0","ARG_OF_PERICENTER":"116.5130","OBJECT_TYPE":"PAYLOAD","FILE":"3886860","MEAN_MOTION_DOT":"0.00016804","INCLINATION":"53.0543","PERIOD":"95.592","BSTAR":"0.00114420000000","MEAN_ELEMENT_THEORY":"SGP4","ELEMENT_SET_NO":"999","RA_OF_ASC_NODE":"50.2201","CENTER_NAME":"EARTH","COUNTRY_CODE":"US"},{"INCLINATION":"53.0166","MEAN_MOTION_DOT":"0.00098999","PERIOD":"93.960","FILE":"3886564","OBJECT_TYPE":"PAYLOAD","RA_OF_ASC_NODE":"8.3415","ELEMENT_SET_NO":"999","COUNTRY_CODE":"US","CENTER_NAME":"EARTH","MEAN_ELEMENT_THEORY":"SGP4","BSTAR":"0.00307500000000","PERIAPSIS":"464.625","TLE_LINE1":"1 44946U 20001AJ  23103.14014308  .00098999  00000-0  30750-2 0  9991","MEAN_MOTION":"15.32559144","RCS_SIZE":"LARGE","MEAN_MOTION_DDOT":"0.0000000000000","EPHEMERIS_TYPE":"0","ARG_OF_PERICENTER":"161.0734","TIME_SYSTEM":"UTC","MEAN_ANOMALY":"199.0459","SEMIMAJOR_AXIS":"6846.317","REV_AT_EPOCH":"18069","GP_ID":"230010664","DECAY_DATE":null,"TLE_LINE2":"2 44946  53.0166   8.3415 0005196 161.0734 199.0459 15.32559144180694","OBJECT_ID":"2020-001AJ","REF_FRAME":"TEME","ECCENTRICITY":"0.00051960","APOAPSIS":"471.739","LAUNCH_DATE":"2020-01-07","SITE":"AFETR","CLASSIFICATION_TYPE":"U","EPOCH":"2023-04-13T03:21:48.362112","NORAD_CAT_ID":"44946","OBJECT_NAME":"STARLINK-1110"}];
